[
    {
        "Altitude(m)": 607895.8040697122,
        "Argument of Periapsis(deg)": 0.0,
        "Eccentricity": 0.0,
        "Inclination(deg)": 60.0,
        "Latitude(deg)": 40.99830352627187,
        "Longitude(deg)": -149.91126690612415,
        "Mean Anomaly(deg)": 130.90909999999997,
        "RAAN(deg)": 160.0,
        "Satellite Name": "Test1 712",
        "Satellite Number": 712,
        "Semi-Major Axis(m)": 6980739.136638005,
        "Time(s)": 0
    },
    {
        "Altitude(m)": 607795.1166227359,
        "Argument of Periapsis(deg)": 0.00010418945913296404,
        "Eccentricity": 0.0,
        "Inclination(deg)": 60.0,
        "Latitude(deg)": 40.530626904147766,
        "Longitude(deg)": -149.41467477226277,
        "Mean Anomaly(deg)": 131.5292061454618,
        "RAAN(deg)": 159.99957995086024,
        "Satellite Name": "Test1 712",
        "Satellite Number": 712,
        "Semi-Major Axis(m)": 6980739.136638005,
        "Time(s)": 10
    }
]